{
  "links" : {
    "next" : "https://api.nasa.gov/neo/rest/v1/feed?start_date=2007-03-09&end_date=2007-03-09&detailed=true&api_key=t0TVs3DtDT2H8Oy2Zy8m2eVrNsAVKAexjcZXUckd",
    "prev" : "https://api.nasa.gov/neo/rest/v1/feed?start_date=2007-03-07&end_date=2007-03-07&detailed=true&api_key=t0TVs3DtDT2H8Oy2Zy8m2eVrNsAVKAexjcZXUckd",
    "self" : "https://api.nasa.gov/neo/rest/v1/feed?start_date=2007-03-08&end_date=2007-03-08&detailed=true&api_key=t0TVs3DtDT2H8Oy2Zy8m2eVrNsAVKAexjcZXUckd"
  },
  "element_count" : 3,
  "near_earth_objects" : {
    "2007-03-08" : [ {
      "links" : {
        "self" : "https://api.nasa.gov/neo/rest/v1/neo/3267564?api_key=t0TVs3DtDT2H8Oy2Zy8m2eVrNsAVKAexjcZXUckd"
      },
      "neo_reference_id" : "3267564",
      "name" : "(2005 CN61)",
      "nasa_jpl_url" : "http://ssd.jpl.nasa.gov/sbdb.cgi?sstr=3267564",
      "absolute_magnitude_h" : 25.3,
      "estimated_diameter" : {
        "kilometers" : {
          "estimated_diameter_min" : 0.0231502122,
          "estimated_diameter_max" : 0.0517654482
        },
        "meters" : {
          "estimated_diameter_min" : 23.150212221,
          "estimated_diameter_max" : 51.7654482198
        },
        "miles" : {
          "estimated_diameter_min" : 0.0143848705,
          "estimated_diameter_max" : 0.0321655483
        },
        "feet" : {
          "estimated_diameter_min" : 75.9521422633,
          "estimated_diameter_max" : 169.8341531374
        }
      },
      "is_potentially_hazardous_asteroid" : false,
      "close_approach_data" : [ {
        "close_approach_date" : "2007-03-08",
        "epoch_date_close_approach" : 1173340800000,
        "relative_velocity" : {
          "kilometers_per_second" : "5.4432051772",
          "kilometers_per_hour" : "19595.5386378567",
          "miles_per_hour" : "12175.9056608394"
        },
        "miss_distance" : {
          "astronomical" : "0.1507112869",
          "lunar" : "58.6266899109",
          "kilometers" : "22546088",
          "miles" : "14009489"
        },
        "orbiting_body" : "Earth"
      } ],
      "orbital_data" : {
        "orbit_id" : "10",
        "orbit_determination_date" : "2017-04-06 09:11:26",
        "orbit_uncertainty" : "5",
        "minimum_orbit_intersection" : ".0219111",
        "jupiter_tisserand_invariant" : "6.120",
        "epoch_osculation" : "2458000.5",
        "eccentricity" : ".06804401214797175",
        "semi_major_axis" : ".9888975837566141",
        "inclination" : "9.548019330393744",
        "ascending_node_longitude" : "146.7003862470961",
        "orbital_period" : "359.19096210352",
        "perihelion_distance" : ".9216090245543791",
        "perihelion_argument" : "248.6059699178912",
        "aphelion_distance" : "1.056186142958849",
        "perihelion_time" : "2457988.176018434070",
        "mean_anomaly" : "12.35173997071839",
        "mean_motion" : "1.00225238934672",
        "equinox" : "J2000"
      }
    }, {
      "links" : {
        "self" : "https://api.nasa.gov/neo/rest/v1/neo/3605760?api_key=t0TVs3DtDT2H8Oy2Zy8m2eVrNsAVKAexjcZXUckd"
      },
      "neo_reference_id" : "3605760",
      "name" : "(2012 LF11)",
      "nasa_jpl_url" : "http://ssd.jpl.nasa.gov/sbdb.cgi?sstr=3605760",
      "absolute_magnitude_h" : 20.8,
      "estimated_diameter" : {
        "kilometers" : {
          "estimated_diameter_min" : 0.1838886721,
          "estimated_diameter_max" : 0.411187571
        },
        "meters" : {
          "estimated_diameter_min" : 183.8886720703,
          "estimated_diameter_max" : 411.1875710413
        },
        "miles" : {
          "estimated_diameter_min" : 0.1142630881,
          "estimated_diameter_max" : 0.2555000322
        },
        "feet" : {
          "estimated_diameter_min" : 603.309310875,
          "estimated_diameter_max" : 1349.040630575
        }
      },
      "is_potentially_hazardous_asteroid" : false,
      "close_approach_data" : [ {
        "close_approach_date" : "2007-03-08",
        "epoch_date_close_approach" : 1173340800000,
        "relative_velocity" : {
          "kilometers_per_second" : "18.7384245588",
          "kilometers_per_hour" : "67458.3284117304",
          "miles_per_hour" : "41915.981895611"
        },
        "miss_distance" : {
          "astronomical" : "0.4949717918",
          "lunar" : "192.5440216064",
          "kilometers" : "74046728",
          "miles" : "46010500"
        },
        "orbiting_body" : "Earth"
      } ],
      "orbital_data" : {
        "orbit_id" : "30",
        "orbit_determination_date" : "2017-04-06 08:49:34",
        "orbit_uncertainty" : "2",
        "minimum_orbit_intersection" : ".110815",
        "jupiter_tisserand_invariant" : "6.512",
        "epoch_osculation" : "2458000.5",
        "eccentricity" : ".4831761962100073",
        "semi_major_axis" : ".8972141839833276",
        "inclination" : "11.64738259884765",
        "ascending_node_longitude" : "222.2225909226548",
        "orbital_period" : "310.4149454332835",
        "perihelion_distance" : ".4637016473805977",
        "perihelion_argument" : "263.5353328524871",
        "aphelion_distance" : "1.330726720586057",
        "perihelion_time" : "2457877.332671436747",
        "mean_anomaly" : "142.8418281242225",
        "mean_motion" : "1.159737974270229",
        "equinox" : "J2000"
      }
    }, {
      "links" : {
        "self" : "https://api.nasa.gov/neo/rest/v1/neo/3745994?api_key=t0TVs3DtDT2H8Oy2Zy8m2eVrNsAVKAexjcZXUckd"
      },
      "neo_reference_id" : "3745994",
      "name" : "(2016 EP84)",
      "nasa_jpl_url" : "http://ssd.jpl.nasa.gov/sbdb.cgi?sstr=3745994",
      "absolute_magnitude_h" : 27.4,
      "estimated_diameter" : {
        "kilometers" : {
          "estimated_diameter_min" : 0.0088014652,
          "estimated_diameter_max" : 0.0196806745
        },
        "meters" : {
          "estimated_diameter_min" : 8.801465209,
          "estimated_diameter_max" : 19.6806745089
        },
        "miles" : {
          "estimated_diameter_min" : 0.0054689752,
          "estimated_diameter_max" : 0.0122290004
        },
        "feet" : {
          "estimated_diameter_min" : 28.8761991163,
          "estimated_diameter_max" : 64.5691441559
        }
      },
      "is_potentially_hazardous_asteroid" : false,
      "close_approach_data" : [ {
        "close_approach_date" : "2007-03-08",
        "epoch_date_close_approach" : 1173340800000,
        "relative_velocity" : {
          "kilometers_per_second" : "6.1305793957",
          "kilometers_per_hour" : "22070.0858246648",
          "miles_per_hour" : "13713.4930503313"
        },
        "miss_distance" : {
          "astronomical" : "0.1173515076",
          "lunar" : "45.6497383118",
          "kilometers" : "17555536",
          "miles" : "10908504"
        },
        "orbiting_body" : "Earth"
      } ],
      "orbital_data" : {
        "orbit_id" : "19",
        "orbit_determination_date" : "2017-04-06 08:27:39",
        "orbit_uncertainty" : "4",
        "minimum_orbit_intersection" : ".00345016",
        "jupiter_tisserand_invariant" : "5.313",
        "epoch_osculation" : "2458000.5",
        "eccentricity" : ".1732798296207623",
        "semi_major_axis" : "1.190503784031812",
        "inclination" : ".8191275468113089",
        "ascending_node_longitude" : "287.4896224546092",
        "orbital_period" : "474.4545295080835",
        "perihelion_distance" : ".984213491171907",
        "perihelion_argument" : "195.4557623761087",
        "aphelion_distance" : "1.396794076891717",
        "perihelion_time" : "2457887.931272039635",
        "mean_anomaly" : "85.41333161630428",
        "mean_motion" : ".7587660726376657",
        "equinox" : "J2000"
      }
    } ]
  }
}